-- SimpleProp: fresh satellite catalog + public TLE seed (CelesTrak)
-- NORAD IDs are not unique: multiple catalog rows may share a NORAD ID.

CREATE OR REPLACE FUNCTION parse_tle_epoch(tle_line1 TEXT)
RETURNS TIMESTAMPTZ
LANGUAGE SQL
IMMUTABLE
STRICT
AS $$
  WITH parts AS (
    SELECT
      substring(tle_line1 FROM 19 FOR 2)::INTEGER AS short_year,
      substring(tle_line1 FROM 21 FOR 12)::DOUBLE PRECISION AS day_of_year
  )
  SELECT
    make_timestamptz(
      CASE
        WHEN short_year < 57 THEN 2000 + short_year
        ELSE 1900 + short_year
      END,
      1, 1, 0, 0, 0, 'UTC'
    ) + (day_of_year - 1) * INTERVAL '1 day'
  FROM parts;
$$;

CREATE TABLE satellites (
  id          SERIAL PRIMARY KEY,
  norad_id    INTEGER NOT NULL,
  name        TEXT NOT NULL,
  enabled     BOOLEAN NOT NULL DEFAULT TRUE
);

CREATE TABLE satellite_tles (
  id            BIGSERIAL PRIMARY KEY,
  satellite_id  INTEGER NOT NULL REFERENCES satellites(id) ON DELETE CASCADE,
  epoch         TIMESTAMPTZ NOT NULL,
  tle_line1     TEXT NOT NULL,
  tle_line2     TEXT NOT NULL,
  UNIQUE (satellite_id, epoch)
);

CREATE TEMP TABLE seed_satellites (
  seed_id     SERIAL PRIMARY KEY,
  norad_id    INTEGER NOT NULL,
  name        TEXT NOT NULL,
  tle_line1   TEXT NOT NULL,
  tle_line2   TEXT NOT NULL
);

INSERT INTO seed_satellites (norad_id, name, tle_line1, tle_line2) VALUES
  (16908, 'AJISAI (EGS)', '1 16908U 86061A   26202.58051159 -.00000106  00000+0 -57681-4 0  9990', '2 16908  50.0104  41.6366 0011076 268.1861 131.6506 12.44516675484671'),
  (5560, 'ASTEX 1', '1 05560U 71089A   26202.41887239  .00000358  00000+0  90828-4 0  9991', '2 05560  92.7012 194.8814 0015469   2.0272 358.0994 14.50875060881698'),
  (694, 'ATLAS CENTAUR 2', '1 00694U 63047A   26202.27386369  .00000610  00000+0  60182-4 0  9992', '2 00694  30.3527 168.7573 0545670 178.1377 182.1400 14.12569898150521'),
  (6155, 'ATLAS CENTAUR R/B', '1 06155U 72065B   26202.46035488  .00000479  00000+0  68246-4 0  9996', '2 06155  35.0001 241.6083 0033028  55.8817 304.5010 14.77970940861064'),
  (67796, 'CREW DRAGON 12', '1 67796U 26031A   26202.18553447  .00005896  00000+0  11479-3 0  9998', '2 67796  51.6316 131.8443 0006849 320.6461  39.4029 15.49071756576417'),
  (54216, 'CSS (MENGTIAN)', '1 54216U 22143A   26202.43210246  .00010973  00000+0  14512-3 0  9999', '2 54216  41.4683 114.0267 0001746 306.5318  53.5359 15.58235366298149'),
  (48274, 'CSS (TIANHE)', '1 48274U 21035A   26202.43210246  .00010973  00000+0  14512-3 0  9995', '2 48274  41.4683 114.0267 0001746 306.5318  53.5359 15.58235366298517'),
  (53239, 'CSS (WENTIAN)', '1 53239U 22085A   26202.43210246  .00010973  00000+0  14512-3 0  9998', '2 53239  41.4683 114.0267 0001746 306.5318  53.5359 15.58235366288232'),
  (68689, 'CYGNUS NG-24', '1 68689U 26079A   26202.18553447  .00005896  00000+0  11479-3 0  9992', '2 68689  51.6316 131.8443 0006849 320.6461  39.4029 15.49071756576532'),
  (39260, 'FENGYUN 3C', '1 39260U 13052A   26202.60306904  .00000067  00000+0  55037-4 0  9997', '2 39260  98.5005 174.9022 0013475 286.0849  73.8842 14.15761748663439'),
  (33053, 'FGRST (GLAST)', '1 33053U 08029A   26202.60289390  .00002435  00000+0  83904-4 0  9993', '2 33053  25.5828 325.4885 0008167  16.3289 343.7512 15.24100854   940'),
  (36585, 'GPS BIIF-1  (PRN 25)', '1 36585U 10022A   26202.47664476  .00000079  00000+0  00000+0 0  9992', '2 36585  54.2681 207.1807 0126884  66.1627  17.9853  2.00564146118288'),
  (38833, 'GPS BIIF-3  (PRN 24)', '1 38833U 12053A   26202.21868512  .00000014  00000+0  00000+0 0  9994', '2 38833  53.5902 142.2050 0182407  66.3332 295.5491  2.00568090100129'),
  (39533, 'GPS BIIF-5  (PRN 30)', '1 39533U 14008A   26201.09126277  .00000031  00000+0  00000+0 0  9993', '2 39533  53.6581 147.9776 0084050 231.5729 127.6475  2.00561932 90346'),
  (28190, 'GPS BIIR-11 (PRN 19)', '1 28190U 04009A   26202.36825963 -.00000046  00000+0  00000+0 0  9996', '2 28190  54.8015 274.3045 0117365 174.6043 237.6936  2.00553600163634'),
  (28474, 'GPS BIIR-13 (PRN 02)', '1 28474U 04045A   26202.19867888 -.00000110  00000+0  00000+0 0  9996', '2 28474  55.1141 323.5263 0170297 317.2032  37.8025  2.00557466159108'),
  (26407, 'GPS BIIR-5  (PRN 22)', '1 26407U 00040A   26202.39264854  .00000074  00000+0  00000+0 0  9995', '2 26407  54.8479 213.8035 0120346 302.8238 198.4409  2.00557999190632'),
  (27663, 'GPS BIIR-8  (PRN 16)', '1 27663U 03005A   26202.02391274  .00000071  00000+0  00000+0 0  9998', '2 27663  54.8784 213.6243 0148414  53.1925 318.0536  2.00558800171991'),
  (28874, 'GPS BIIRM-1 (PRN 17)', '1 28874U 05038A   26202.26462731 -.00000041  00000+0  00000+0 0  9992', '2 28874  54.8508 271.8004 0128317 296.4941  70.8975  2.00563406152527'),
  (29486, 'GPS BIIRM-2 (PRN 31)', '1 29486U 06042A   26201.91223605  .00000032  00000+0  00000+0 0  9993', '2 29486  54.7131 150.0000 0107343  55.3231 316.6702  2.00567963145075'),
  (29601, 'GPS BIIRM-3 (PRN 12)', '1 29601U 06052A   26202.32243536  .00000075  00000+0  00000+0 0  9991', '2 29601  54.9318 212.6530 0084749  91.0110 269.9907  2.00560107144094'),
  (32260, 'GPS BIIRM-4 (PRN 15)', '1 32260U 07047A   26202.62832739 -.00000072  00000+0  00000+0 0  9991', '2 32260  54.1207  78.6459 0167999  88.1431 273.8358  2.00553755137503'),
  (29479, 'HINODE (SOLAR-B)', '1 29479U 06041A   26202.52336412  .00000452  00000+0  85968-4 0  9990', '2 29479  98.0548 218.1700 0017576 174.2351 185.9060 14.68663632 59913'),
  (20580, 'HST', '1 20580U 90037B   26202.36670297  .00004372  00000+0  13390-3 0  9990', '2 20580  28.4722 206.9020 0002079 163.2375 196.8290 15.31101055793811'),
  (3669, 'ISIS 1', '1 03669U 69009A   26202.53633184  .00000090  00000+0  54863-4 0  9991', '2 03669  88.4456 140.6286 1707237 178.8550 181.7269 11.30437257363659'),
  (25544, 'ISS (ZARYA)', '1 25544U 98067A   26202.18553447  .00005896  00000+0  11479-3 0  9991', '2 25544  51.6316 131.8443 0006849 320.6461  39.4029 15.49071756577020'),
  (40069, 'METEOR-M 2', '1 40069U 14037A   26202.56620946 -.00000010  00000+0  14927-4 0  9992', '2 40069  98.5143 177.0912 0004764 305.4497  54.6236 14.21469887624201'),
  (38771, 'METOP-B', '1 38771U 12049A   26202.61072963  .00000042  00000+0  38851-4 0  9992', '2 38771  98.6485 253.4198 0001346 221.8467 138.2608 14.21447602718155'),
  (3597, 'OAO 2', '1 03597U 68110A   26202.47813412  .00000103  00000+0  32781-4 0  9990', '2 03597  34.9922 238.2122 0005573 196.3765 163.6746 14.47363117 38496'),
  (6153, 'OAO 3 (COPERNICUS)', '1 06153U 72065A   26202.58307442  .00000163  00000+0  37671-4 0  9997', '2 06153  35.0050 254.4193 0006526 181.2791 335.4272 14.60076886865771'),
  (68319, 'PROGRESS-MS 33', '1 68319U 26058A   26202.18553447  .00005896  00000+0  11479-3 0  9999', '2 68319  51.6316 131.8443 0006849 320.6461  39.4029 15.49071756576150'),
  (27858, 'SCISAT 1', '1 27858U 03036A   26202.19261917  .00000395  00000+0  55026-4 0  9998', '2 27858  73.9301 103.7789 0007053 170.3636 189.7677 14.81483396236486'),
  (41335, 'SENTINEL-3A', '1 41335U 16011A   26202.58017934  .00000041  00000+0  35166-4 0  9993', '2 41335  98.6232 269.4668 0001303  88.7627 271.3703 14.26740972542965'),
  (4327, 'SERT 2', '1 04327U 70009A   26202.35849745 -.00000005  00000+0  50000-4 0  9993', '2 04327  99.2839 138.2382 0004807 172.9651 298.1330 13.58741364798041'),
  (877, 'SL-3 R/B', '1 00877U 64053B   26202.54543688  .00000081  00000+0  39925-4 0  9995', '2 00877  65.0778 298.7699 0080031 250.3096 108.9357 14.61441890286359'),
  (5118, 'SL-3 R/B', '1 05118U 71028B   26202.56912163  .00053080  00000+0  38664-3 0  9993', '2 05118  81.2300 245.2092 0014829 160.1329 200.0511 15.72939391  9648'),
  (10114, 'SL-3 R/B', '1 10114U 77057B   26202.53706038  .00009111  00000+0  17304-3 0  9996', '2 10114  97.5861  20.7617 0007807 148.5753 211.5965 15.48495830689024'),
  (2802, 'SL-8 R/B', '1 02802U 67045B   26202.40868813  .00000177  00000+0  56489-4 0  9994', '2 02802  74.0110  98.3444 0063091  73.2503 287.5565 14.45697668108348'),
  (3230, 'SL-8 R/B', '1 03230U 68040B   26202.50859381  .00002070  00000+0  15209-3 0  9995', '2 03230  74.0291  40.0888 0024721 186.6462 173.4403 15.03962001110124'),
  (5730, 'SL-8 R/B', '1 05730U 71119B   26202.34565727  .00006134  00000+0  31374-3 0  9999', '2 05730  73.8868 285.4204 0542447 224.5071 131.1297 14.39789970674715'),
  (8459, 'SL-8 R/B', '1 08459U 75112B   26202.26275063  .00000178  00000+0  67207-4 0  9996', '2 08459  74.0611 133.1868 0015961 194.7092 165.3600 14.38260215651073'),
  (66664, 'SOYUZ-MS 28', '1 66664U 25275A   26202.18553447  .00005896  00000+0  11479-3 0  9990', '2 66664  51.6316 131.8443 0006849 320.6461  39.4029 15.49071756576117'),
  (28485, 'SWIFT', '1 28485U 04047A   26202.43279528  .00050543  00000+0  36481-3 0  9995', '2 28485  20.5518 280.0692 0002705  92.0040 268.0717 15.71674184192250'),
  (25994, 'TERRA', '1 25994U 99068A   26202.61954139  .00000241  00000+0  58077-4 0  9998', '2 25994  97.9436 250.7972 0003622 110.2563  49.2698 14.61127057414632'),
  (733, 'THOR AGENA D R/B', '1 00733U 64002A   26202.48416843  .00000111  00000+0  57088-4 0  9999', '2 00733  99.1155 223.0661 0032060 227.6837 132.1629 14.34077999257473'),
  (26998, 'TIMED', '1 26998U 01055B   26202.32969157  .00000817  00000+0  77679-4 0  9994', '2 26998  74.0672 166.2696 0002369 293.6419  66.4517 14.95353320335928'),
  (44714, 'STARLINK-1008', '1 44714U 19074B   26202.43561651  .00042580  00000+0  64816-3 0  9990', '2 44714  53.1499 264.2217 0005598 344.9467  15.1377 15.54101705369530'),
  (44718, 'STARLINK-1012', '1 44718U 19074F   26202.61666667  .00066211  00000+0  98330-3 0  9992', '2 44718  53.1533 263.5441 0005934 347.1072  12.9787 15.54586511369559'),
  (44747, 'STARLINK-1042', '1 44747U 19074AL  26202.63146751  .00024278  00000+0  34783-3 0  9992', '2 44747  53.0417 168.9654 0001427  57.7899 302.3250 15.56064760370887'),
  (44751, 'STARLINK-1046', '1 44751U 19074AQ  26202.22521110  .00040091  00000+0  47408-3 0  9997', '2 44751  53.0446 288.0502 0003832 281.4682  78.5900 15.60903961369150'),
  (44768, 'STARLINK-1063', '1 44768U 19074BH  26202.64038470  .00052650  00000+0  79208-3 0  9990', '2 44768  53.1528 304.2669 0004406 327.9481  32.1262 15.54337989369001'),
  (44927, 'STARLINK-1114', '1 44927U 20001P   26202.58313563  .00064105  00000+0  43856-3 0  9999', '2 44927  53.0398  34.9527 0001494 265.3049  94.7799 15.74191635361022'),
  (45047, 'STARLINK-1131', '1 45047U 20006D   26201.76707484  .00023415  00000+0  29329-3 0  9994', '2 45047  53.1546   8.4283 0000575  54.9946 305.1121 15.59691975357123'),
  (45060, 'STARLINK-1166', '1 45060U 20006S   26202.58391014  .00054129  00000+0  45141-3 0  9994', '2 45060  53.0432 343.8433 0001428 344.2003  15.8968 15.69562296357512');

WITH inserted AS (
  INSERT INTO satellites (norad_id, name)
  SELECT norad_id, name
  FROM seed_satellites
  ORDER BY seed_id
  RETURNING id, norad_id, name
),
numbered_inserted AS (
  SELECT
    id,
    row_number() OVER (ORDER BY id) AS seed_id
  FROM inserted
)
INSERT INTO satellite_tles (satellite_id, epoch, tle_line1, tle_line2)
SELECT
  numbered_inserted.id,
  parse_tle_epoch(seed_satellites.tle_line1),
  seed_satellites.tle_line1,
  seed_satellites.tle_line2
FROM numbered_inserted
JOIN seed_satellites USING (seed_id);
